LANDSAT 9               
1 49260U 21088A   23315.45889269  .00000869  00000+0  20281-3 0  9993
2 49260  98.2154  23.4763 0001164  92.0105 268.1227 14.57112574112836
